<?xml version="1.0" encoding="UTF-8"?>
<!-- Created with BasicAirData GPS Logger for Android - ver. 3.3.0 -->
<!-- Track 386 = 590 TrackPoints + 0 Placemarks -->

<!-- Track Statistics (based on Total Time | Time in Movement): -->
<!--  Distance = 8.69 公里 -->
<!--  Duration = 30:46 | 23:00 -->
<!--  Altitude Gap = 17 米 -->
<!--  Max Speed = 59 公里/时 -->
<!--  Avg Speed = 17.0 | 22.7 公里/时 -->
<!--  Direction = 135° -->
<!--  Activity = car -->
<!--  Altitudes = Corrected using EGM96 grid (bilinear interpolation) -->

<gpx version="1.1"
     creator="BasicAirData GPS Logger 3.3.0"
     xmlns="http://www.topografix.com/GPX/1/1"
     xmlns:xsi="http://www.w3.org/2001/XMLSchema-instance"
     xsi:schemaLocation="http://www.topografix.com/GPX/1/1 http://www.topografix.com/GPX/1/1/gpx.xsd">
<metadata> 
 <name>GPS Logger 20260502-184759</name>
 <time>2026-08-05T14:29:17Z</time>
 <keywords>car</keywords>
 <bounds minlat="30.27032821" minlon="120.07542620" maxlat="30.30935219" maxlon="120.12064094" />
</metadata>

<trk>
 <name>轨迹 20260502-184759</name>
 <trkseg>
  <trkpt lat="30.30930489" lon="120.07542620"><ele>7.472</ele><time>2026-05-02T10:47:59Z</time><sat>35</sat></trkpt>
  <trkpt lat="30.30932798" lon="120.07557772"><ele>8.172</ele><time>2026-05-02T10:48:02Z</time><sat>35</sat></trkpt>
  <trkpt lat="30.30934251" lon="120.07567339"><ele>9.570</ele><time>2026-05-02T10:48:05Z</time><sat>34</sat></trkpt>
  <trkpt lat="30.30935081" lon="120.07572001"><ele>9.029</ele><time>2026-05-02T10:48:08Z</time><sat>34</sat></trkpt>
  <trkpt lat="30.30933599" lon="120.07577577"><ele>8.998</ele><time>2026-05-02T10:48:11Z</time><sat>35</sat></trkpt>
  <trkpt lat="30.30935219" lon="120.07582737"><ele>7.022</ele><time>2026-05-02T10:48:14Z</time><sat>35</sat></trkpt>
  <trkpt lat="30.30934781" lon="120.07587847"><ele>6.449</ele><time>2026-05-02T10:48:17Z</time><sat>35</sat></trkpt>
  <trkpt lat="30.30922581" lon="120.07591851"><ele>9.794</ele><time>2026-05-02T10:48:20Z</time><sat>34</sat></trkpt>
  <trkpt lat="30.30907804" lon="120.07594530"><ele>9.298</ele><time>2026-05-02T10:48:23Z</time><sat>34</sat></trkpt>
  <trkpt lat="30.30890221" lon="120.07598509"><ele>10.479</ele><time>2026-05-02T10:48:26Z</time><sat>35</sat></trkpt>
  <trkpt lat="30.30870404" lon="120.07602536"><ele>12.207</ele><time>2026-05-02T10:48:29Z</time><sat>34</sat></trkpt>
  <trkpt lat="30.30848787" lon="120.07606961"><ele>12.753</ele><time>2026-05-02T10:48:32Z</time><sat>35</sat></trkpt>
  <trkpt lat="30.30828146" lon="120.07611155"><ele>12.129</ele><time>2026-05-02T10:48:35Z</time><sat>35</sat></trkpt>
  <trkpt lat="30.30806896" lon="120.07614963"><ele>12.173</ele><time>2026-05-02T10:48:38Z</time><sat>34</sat></trkpt>
  <trkpt lat="30.30784874" lon="120.07619887"><ele>11.776</ele><time>2026-05-02T10:48:41Z</time><sat>37</sat></trkpt>
  <trkpt lat="30.30763138" lon="120.07624264"><ele>12.189</ele><time>2026-05-02T10:48:44Z</time><sat>37</sat></trkpt>
  <trkpt lat="30.30739956" lon="120.07628572"><ele>12.613</ele><time>2026-05-02T10:48:47Z</time><sat>36</sat></trkpt>
  <trkpt lat="30.30717234" lon="120.07632773"><ele>12.916</ele><time>2026-05-02T10:48:50Z</time><sat>38</sat></trkpt>
  <trkpt lat="30.30694667" lon="120.07637832"><ele>12.580</ele><time>2026-05-02T10:48:53Z</time><sat>38</sat></trkpt>
  <trkpt lat="30.30672693" lon="120.07642544"><ele>13.096</ele><time>2026-05-02T10:48:56Z</time><sat>38</sat></trkpt>
  <trkpt lat="30.30649295" lon="120.07645414"><ele>13.431</ele><time>2026-05-02T10:48:59Z</time><sat>38</sat></trkpt>
  <trkpt lat="30.30635390" lon="120.07649229"><ele>12.914</ele><time>2026-05-02T10:49:02Z</time><sat>37</sat></trkpt>
  <trkpt lat="30.30625287" lon="120.07651360"><ele>13.079</ele><time>2026-05-02T10:49:05Z</time><sat>38</sat></trkpt>
  <trkpt lat="30.30622215" lon="120.07651686"><ele>13.284</ele><time>2026-05-02T10:49:08Z</time><sat>38</sat></trkpt>
  <trkpt lat="30.30619294" lon="120.07652212"><ele>13.196</ele><time>2026-05-02T10:49:11Z</time><sat>36</sat></trkpt>
  <trkpt lat="30.30616004" lon="120.07653319"><ele>13.544</ele><time>2026-05-02T10:49:14Z</time><sat>36</sat></trkpt>
  <trkpt lat="30.30613075" lon="120.07654211"><ele>13.708</ele><time>2026-05-02T10:49:17Z</time><sat>38</sat></trkpt>
  <trkpt lat="30.30611373" lon="120.07654763"><ele>13.804</ele><time>2026-05-02T10:49:20Z</time><sat>38</sat></trkpt>
  <trkpt lat="30.30609571" lon="120.07655282"><ele>13.501</ele><time>2026-05-02T10:49:23Z</time><sat>37</sat></trkpt>
  <trkpt lat="30.30598068" lon="120.07657650"><ele>13.622</ele><time>2026-05-02T10:49:26Z</time><sat>38</sat></trkpt>
  <trkpt lat="30.30580940" lon="120.07660442"><ele>13.693</ele><time>2026-05-02T10:49:29Z</time><sat>37</sat></trkpt>
  <trkpt lat="30.30559820" lon="120.07664303"><ele>13.176</ele><time>2026-05-02T10:49:32Z</time><sat>38</sat></trkpt>
  <trkpt lat="30.30538679" lon="120.07667247"><ele>12.646</ele><time>2026-05-02T10:49:35Z</time><sat>37</sat></trkpt>
  <trkpt lat="30.30518540" lon="120.07670444"><ele>13.662</ele><time>2026-05-02T10:49:38Z</time><sat>36</sat></trkpt>
  <trkpt lat="30.30499274" lon="120.07672782"><ele>13.753</ele><time>2026-05-02T10:49:41Z</time><sat>36</sat></trkpt>
  <trkpt lat="30.30479850" lon="120.07674366"><ele>13.302</ele><time>2026-05-02T10:49:44Z</time><sat>34</sat></trkpt>
  <trkpt lat="30.30459043" lon="120.07676552"><ele>13.250</ele><time>2026-05-02T10:49:47Z</time><sat>35</sat></trkpt>
  <trkpt lat="30.30436636" lon="120.07678399"><ele>13.346</ele><time>2026-05-02T10:49:50Z</time><sat>35</sat></trkpt>
  <trkpt lat="30.30413326" lon="120.07681636"><ele>14.009</ele><time>2026-05-02T10:49:53Z</time><sat>35</sat></trkpt>
  <trkpt lat="30.30392398" lon="120.07685244"><ele>15.656</ele><time>2026-05-02T10:49:56Z</time><sat>36</sat></trkpt>
  <trkpt lat="30.30372450" lon="120.07686084"><ele>16.255</ele><time>2026-05-02T10:49:59Z</time><sat>35</sat></trkpt>
  <trkpt lat="30.30350689" lon="120.07688220"><ele>17.764</ele><time>2026-05-02T10:50:02Z</time><sat>36</sat></trkpt>
  <trkpt lat="30.30328187" lon="120.07689932"><ele>17.985</ele><time>2026-05-02T10:50:05Z</time><sat>35</sat></trkpt>
  <trkpt lat="30.30306606" lon="120.07691787"><ele>18.390</ele><time>2026-05-02T10:50:08Z</time><sat>34</sat></trkpt>
  <trkpt lat="30.30285384" lon="120.07693828"><ele>19.106</ele><time>2026-05-02T10:50:11Z</time><sat>34</sat></trkpt>
  <trkpt lat="30.30264051" lon="120.07695519"><ele>19.691</ele><time>2026-05-02T10:50:14Z</time><sat>35</sat></trkpt>
  <trkpt lat="30.30242032" lon="120.07698092"><ele>20.440</ele><time>2026-05-02T10:50:17Z</time><sat>34</sat></trkpt>
  <trkpt lat="30.30219434" lon="120.07700340"><ele>21.219</ele><time>2026-05-02T10:50:20Z</time><sat>32</sat></trkpt>
  <trkpt lat="30.30197093" lon="120.07701923"><ele>21.166</ele><time>2026-05-02T10:50:23Z</time><sat>32</sat></trkpt>
  <trkpt lat="30.30174918" lon="120.07702135"><ele>20.767</ele><time>2026-05-02T10:50:26Z</time><sat>34</sat></trkpt>
  <trkpt lat="30.30154895" lon="120.07702044"><ele>20.743</ele><time>2026-05-02T10:50:29Z</time><sat>35</sat></trkpt>
  <trkpt lat="30.30136091" lon="120.07701400"><ele>19.710</ele><time>2026-05-02T10:50:32Z</time><sat>36</sat></trkpt>
  <trkpt lat="30.30116627" lon="120.07700585"><ele>19.995</ele><time>2026-05-02T10:50:35Z</time><sat>37</sat></trkpt>
  <trkpt lat="30.30096753" lon="120.07699240"><ele>18.969</ele><time>2026-05-02T10:50:38Z</time><sat>37</sat></trkpt>
  <trkpt lat="30.30077475" lon="120.07698245"><ele>18.429</ele><time>2026-05-02T10:50:41Z</time><sat>37</sat></trkpt>
  <trkpt lat="30.30057524" lon="120.07697459"><ele>17.988</ele><time>2026-05-02T10:50:44Z</time><sat>37</sat></trkpt>
  <trkpt lat="30.30037050" lon="120.07696295"><ele>16.951</ele><time>2026-05-02T10:50:47Z</time><sat>37</sat></trkpt>
  <trkpt lat="30.30017531" lon="120.07695041"><ele>15.414</ele><time>2026-05-02T10:50:50Z</time><sat>36</sat></trkpt>
  <trkpt lat="30.30000299" lon="120.07692479"><ele>15.033</ele><time>2026-05-02T10:50:53Z</time><sat>35</sat></trkpt>
  <trkpt lat="30.29986356" lon="120.07687691"><ele>14.095</ele><time>2026-05-02T10:50:56Z</time><sat>35</sat></trkpt>
  <trkpt lat="30.29973014" lon="120.07683425"><ele>13.116</ele><time>2026-05-02T10:50:59Z</time><sat>35</sat></trkpt>
  <trkpt lat="30.29960798" lon="120.07682546"><ele>13.587</ele><time>2026-05-02T10:51:02Z</time><sat>35</sat></trkpt>
  <trkpt lat="30.29951899" lon="120.07682228"><ele>15.357</ele><time>2026-05-02T10:51:05Z</time><sat>35</sat></trkpt>
  <trkpt lat="30.29943457" lon="120.07686541"><ele>16.105</ele><time>2026-05-02T10:51:08Z</time><sat>36</sat></trkpt>
  <trkpt lat="30.29939357" lon="120.07693793"><ele>14.882</ele><time>2026-05-02T10:51:11Z</time><sat>36</sat></trkpt>
  <trkpt lat="30.29938188" lon="120.07697410"><ele>14.103</ele><time>2026-05-02T10:51:14Z</time><sat>36</sat></trkpt>
  <trkpt lat="30.29937300" lon="120.07700396"><ele>14.242</ele><time>2026-05-02T10:51:17Z</time><sat>36</sat></trkpt>
  <trkpt lat="30.29934925" lon="120.07709181"><ele>14.457</ele><time>2026-05-02T10:51:20Z</time><sat>35</sat></trkpt>
  <trkpt lat="30.29934351" lon="120.07724440"><ele>14.319</ele><time>2026-05-02T10:51:23Z</time><sat>36</sat></trkpt>
  <trkpt lat="30.29934299" lon="120.07739614"><ele>14.141</ele><time>2026-05-02T10:51:26Z</time><sat>37</sat></trkpt>
  <trkpt lat="30.29934122" lon="120.07757346"><ele>14.411</ele><time>2026-05-02T10:51:29Z</time><sat>37</sat></trkpt>
  <trkpt lat="30.29933887" lon="120.07776269"><ele>14.037</ele><time>2026-05-02T10:51:32Z</time><sat>36</sat></trkpt>
  <trkpt lat="30.29933574" lon="120.07795983"><ele>13.624</ele><time>2026-05-02T10:51:35Z</time><sat>36</sat></trkpt>
  <trkpt lat="30.29933172" lon="120.07816625"><ele>12.405</ele><time>2026-05-02T10:51:38Z</time><sat>37</sat></trkpt>
  <trkpt lat="30.29932708" lon="120.07838594"><ele>11.618</ele><time>2026-05-02T10:51:41Z</time><sat>36</sat></trkpt>
  <trkpt lat="30.29932110" lon="120.07859475"><ele>10.797</ele><time>2026-05-02T10:51:44Z</time><sat>34</sat></trkpt>
  <trkpt lat="30.29931405" lon="120.07879265"><ele>10.125</ele><time>2026-05-02T10:51:47Z</time><sat>32</sat></trkpt>
  <trkpt lat="30.29930705" lon="120.07898752"><ele>9.924</ele><time>2026-05-02T10:51:50Z</time><sat>31</sat></trkpt>
  <trkpt lat="30.29931125" lon="120.07916535"><ele>9.820</ele><time>2026-05-02T10:51:53Z</time><sat>32</sat></trkpt>
  <trkpt lat="30.29931132" lon="120.07935677"><ele>9.927</ele><time>2026-05-02T10:51:56Z</time><sat>33</sat></trkpt>
  <trkpt lat="30.29930912" lon="120.07955096"><ele>10.185</ele><time>2026-05-02T10:51:59Z</time><sat>33</sat></trkpt>
  <trkpt lat="30.29930865" lon="120.07976037"><ele>9.580</ele><time>2026-05-02T10:52:02Z</time><sat>32</sat></trkpt>
  <trkpt lat="30.29930659" lon="120.07996785"><ele>9.383</ele><time>2026-05-02T10:52:05Z</time><sat>30</sat></trkpt>
  <trkpt lat="30.29930976" lon="120.08016450"><ele>10.581</ele><time>2026-05-02T10:52:08Z</time><sat>31</sat></trkpt>
  <trkpt lat="30.29930631" lon="120.08037777"><ele>11.821</ele><time>2026-05-02T10:52:11Z</time><sat>30</sat></trkpt>
  <trkpt lat="30.29930605" lon="120.08059111"><ele>12.009</ele><time>2026-05-02T10:52:14Z</time><sat>31</sat></trkpt>
  <trkpt lat="30.29930737" lon="120.08080602"><ele>10.997</ele><time>2026-05-02T10:52:17Z</time><sat>32</sat></trkpt>
  <trkpt lat="30.29930698" lon="120.08101353"><ele>10.283</ele><time>2026-05-02T10:52:20Z</time><sat>31</sat></trkpt>
  <trkpt lat="30.29930412" lon="120.08122398"><ele>9.852</ele><time>2026-05-02T10:52:23Z</time><sat>28</sat></trkpt>
  <trkpt lat="30.29929834" lon="120.08141662"><ele>9.665</ele><time>2026-05-02T10:52:26Z</time><sat>26</sat></trkpt>
  <trkpt lat="30.29929905" lon="120.08158878"><ele>9.001</ele><time>2026-05-02T10:52:29Z</time><sat>28</sat></trkpt>
  <trkpt lat="30.29929927" lon="120.08177768"><ele>9.358</ele><time>2026-05-02T10:52:32Z</time><sat>30</sat></trkpt>
  <trkpt lat="30.29930994" lon="120.08197508"><ele>8.950</ele><time>2026-05-02T10:52:35Z</time><sat>34</sat></trkpt>
  <trkpt lat="30.29931587" lon="120.08218026"><ele>10.591</ele><time>2026-05-02T10:52:38Z</time><sat>35</sat></trkpt>
  <trkpt lat="30.29931996" lon="120.08240386"><ele>9.942</ele><time>2026-05-02T10:52:41Z</time><sat>33</sat></trkpt>
  <trkpt lat="30.29932571" lon="120.08258631"><ele>10.251</ele><time>2026-05-02T10:52:44Z</time><sat>31</sat></trkpt>
  <trkpt lat="30.29932508" lon="120.08274926"><ele>10.128</ele><time>2026-05-02T10:52:47Z</time><sat>30</sat></trkpt>
  <trkpt lat="30.29931848" lon="120.08293422"><ele>11.606</ele><time>2026-05-02T10:52:50Z</time><sat>30</sat></trkpt>
  <trkpt lat="30.29931921" lon="120.08314575"><ele>10.939</ele><time>2026-05-02T10:52:53Z</time><sat>31</sat></trkpt>
  <trkpt lat="30.29932533" lon="120.08334634"><ele>10.721</ele><time>2026-05-02T10:52:56Z</time><sat>32</sat></trkpt>
  <trkpt lat="30.29932415" lon="120.08354764"><ele>10.078</ele><time>2026-05-02T10:52:59Z</time><sat>34</sat></trkpt>
  <trkpt lat="30.29933135" lon="120.08376351"><ele>10.216</ele><time>2026-05-02T10:53:02Z</time><sat>34</sat></trkpt>
  <trkpt lat="30.29932588" lon="120.08397412"><ele>9.574</ele><time>2026-05-02T10:53:05Z</time><sat>30</sat></trkpt>
  <trkpt lat="30.29932161" lon="120.08418305"><ele>9.099</ele><time>2026-05-02T10:53:08Z</time><sat>29</sat></trkpt>
  <trkpt lat="30.29930920" lon="120.08439307"><ele>9.384</ele><time>2026-05-02T10:53:11Z</time><sat>30</sat></trkpt>
  <trkpt lat="30.29931379" lon="120.08460523"><ele>9.421</ele><time>2026-05-02T10:53:14Z</time><sat>33</sat></trkpt>
  <trkpt lat="30.29931525" lon="120.08481730"><ele>9.405</ele><time>2026-05-02T10:53:17Z</time><sat>31</sat></trkpt>
  <trkpt lat="30.29930875" lon="120.08503031"><ele>8.542</ele><time>2026-05-02T10:53:20Z</time><sat>32</sat></trkpt>
  <trkpt lat="30.29931499" lon="120.08525030"><ele>9.276</ele><time>2026-05-02T10:53:23Z</time><sat>31</sat></trkpt>
  <trkpt lat="30.29931096" lon="120.08547276"><ele>9.875</ele><time>2026-05-02T10:53:26Z</time><sat>29</sat></trkpt>
  <trkpt lat="30.29931740" lon="120.08569025"><ele>8.950</ele><time>2026-05-02T10:53:29Z</time><sat>29</sat></trkpt>
  <trkpt lat="30.29931773" lon="120.08589675"><ele>8.793</ele><time>2026-05-02T10:53:32Z</time><sat>29</sat></trkpt>
  <trkpt lat="30.29932243" lon="120.08610356"><ele>8.497</ele><time>2026-05-02T10:53:35Z</time><sat>28</sat></trkpt>
  <trkpt lat="30.29932279" lon="120.08627090"><ele>8.797</ele><time>2026-05-02T10:53:38Z</time><sat>29</sat></trkpt>
  <trkpt lat="30.29934366" lon="120.08642958"><ele>8.537</ele><time>2026-05-02T10:53:41Z</time><sat>31</sat></trkpt>
  <trkpt lat="30.29935126" lon="120.08658902"><ele>8.679</ele><time>2026-05-02T10:53:44Z</time><sat>33</sat></trkpt>
  <trkpt lat="30.29935010" lon="120.08674817"><ele>8.801</ele><time>2026-05-02T10:53:47Z</time><sat>34</sat></trkpt>
  <trkpt lat="30.29934302" lon="120.08688319"><ele>8.253</ele><time>2026-05-02T10:53:50Z</time><sat>32</sat></trkpt>
  <trkpt lat="30.29933694" lon="120.08695817"><ele>7.446</ele><time>2026-05-02T10:53:53Z</time><sat>29</sat></trkpt>
  <trkpt lat="30.29933159" lon="120.08701885"><ele>7.362</ele><time>2026-05-02T10:53:56Z</time><sat>22</sat></trkpt>
  <trkpt lat="30.29933741" lon="120.08702384"><ele>7.755</ele><time>2026-05-02T10:53:59Z</time><sat>17</sat></trkpt>
  <trkpt lat="30.29934194" lon="120.08702967"><ele>7.981</ele><time>2026-05-02T10:54:02Z</time><sat>18</sat></trkpt>
  <trkpt lat="30.29934008" lon="120.08703311"><ele>7.648</ele><time>2026-05-02T10:54:05Z</time><sat>19</sat></trkpt>
  <trkpt lat="30.29934226" lon="120.08706232"><ele>5.569</ele><time>2026-05-02T10:54:08Z</time><sat>21</sat></trkpt>
  <trkpt lat="30.29934297" lon="120.08709936"><ele>4.534</ele><time>2026-05-02T10:54:11Z</time><sat>19</sat></trkpt>
  <trkpt lat="30.29934705" lon="120.08714518"><ele>2.314</ele><time>2026-05-02T10:54:14Z</time><sat>15</sat></trkpt>
  <trkpt lat="30.29933808" lon="120.08721228"><ele>3.440</ele><time>2026-05-02T10:54:17Z</time><sat>19</sat></trkpt>
  <trkpt lat="30.29933166" lon="120.08729769"><ele>4.261</ele><time>2026-05-02T10:54:20Z</time><sat>22</sat></trkpt>
  <trkpt lat="30.29931804" lon="120.08738588"><ele>6.851</ele><time>2026-05-02T10:54:23Z</time><sat>29</sat></trkpt>
  <trkpt lat="30.29930370" lon="120.08747938"><ele>8.083</ele><time>2026-05-02T10:54:26Z</time><sat>30</sat></trkpt>
  <trkpt lat="30.29930285" lon="120.08755507"><ele>8.382</ele><time>2026-05-02T10:54:29Z</time><sat>29</sat></trkpt>
  <trkpt lat="30.29930251" lon="120.08760408"><ele>7.263</ele><time>2026-05-02T10:54:32Z</time><sat>29</sat></trkpt>
  <trkpt lat="30.29929718" lon="120.08763490"><ele>7.860</ele><time>2026-05-02T10:54:35Z</time><sat>33</sat></trkpt>
  <trkpt lat="30.29928105" lon="120.08768647"><ele>8.009</ele><time>2026-05-02T10:54:38Z</time><sat>34</sat></trkpt>
  <trkpt lat="30.29921552" lon="120.08775421"><ele>9.225</ele><time>2026-05-02T10:54:41Z</time><sat>35</sat></trkpt>
  <trkpt lat="30.29905683" lon="120.08776305"><ele>9.248</ele><time>2026-05-02T10:54:44Z</time><sat>34</sat></trkpt>
  <trkpt lat="30.29883191" lon="120.08777878"><ele>9.118</ele><time>2026-05-02T10:54:47Z</time><sat>34</sat></trkpt>
  <trkpt lat="30.29856802" lon="120.08778607"><ele>9.825</ele><time>2026-05-02T10:54:50Z</time><sat>32</sat></trkpt>
  <trkpt lat="30.29829027" lon="120.08779389"><ele>11.014</ele><time>2026-05-02T10:54:53Z</time><sat>34</sat></trkpt>
  <trkpt lat="30.29799878" lon="120.08781414"><ele>11.611</ele><time>2026-05-02T10:54:56Z</time><sat>33</sat></trkpt>
  <trkpt lat="30.29773511" lon="120.08783573"><ele>11.865</ele><time>2026-05-02T10:54:59Z</time><sat>35</sat></trkpt>
  <trkpt lat="30.29754899" lon="120.08785045"><ele>11.910</ele><time>2026-05-02T10:55:02Z</time><sat>35</sat></trkpt>
  <trkpt lat="30.29737993" lon="120.08787840"><ele>12.248</ele><time>2026-05-02T10:55:05Z</time><sat>35</sat></trkpt>
  <trkpt lat="30.29723422" lon="120.08794899"><ele>12.929</ele><time>2026-05-02T10:55:08Z</time><sat>36</sat></trkpt>
  <trkpt lat="30.29714434" lon="120.08810372"><ele>12.317</ele><time>2026-05-02T10:55:11Z</time><sat>36</sat></trkpt>
  <trkpt lat="30.29711774" lon="120.08835659"><ele>11.333</ele><time>2026-05-02T10:55:14Z</time><sat>35</sat></trkpt>
  <trkpt lat="30.29710630" lon="120.08866256"><ele>10.416</ele><time>2026-05-02T10:55:17Z</time><sat>35</sat></trkpt>
  <trkpt lat="30.29709481" lon="120.08902125"><ele>9.081</ele><time>2026-05-02T10:55:20Z</time><sat>32</sat></trkpt>
  <trkpt lat="30.29709470" lon="120.08940294"><ele>9.211</ele><time>2026-05-02T10:55:23Z</time><sat>33</sat></trkpt>
  <trkpt lat="30.29709387" lon="120.08981333"><ele>8.493</ele><time>2026-05-02T10:55:26Z</time><sat>34</sat></trkpt>
  <trkpt lat="30.29709312" lon="120.09023400"><ele>7.571</ele><time>2026-05-02T10:55:29Z</time><sat>33</sat></trkpt>
  <trkpt lat="30.29709204" lon="120.09065560"><ele>7.615</ele><time>2026-05-02T10:55:32Z</time><sat>33</sat></trkpt>
  <trkpt lat="30.29709234" lon="120.09106520"><ele>6.837</ele><time>2026-05-02T10:55:35Z</time><sat>33</sat></trkpt>
  <trkpt lat="30.29709365" lon="120.09149162"><ele>4.865</ele><time>2026-05-02T10:55:38Z</time><sat>32</sat></trkpt>
  <trkpt lat="30.29709290" lon="120.09192580"><ele>1.943</ele><time>2026-05-02T10:55:41Z</time><sat>34</sat></trkpt>
  <trkpt lat="30.29709656" lon="120.09237618"><ele>0.297</ele><time>2026-05-02T10:55:44Z</time><sat>34</sat></trkpt>
  <trkpt lat="30.29711432" lon="120.09286878"><ele>0.367</ele><time>2026-05-02T10:55:47Z</time><sat>34</sat></trkpt>
  <trkpt lat="30.29581362" lon="120.10359726"><ele>1.336</ele><time>2026-05-02T10:56:56Z</time><sat>28</sat></trkpt>
  <trkpt lat="30.29581544" lon="120.10403207"><ele>1.679</ele><time>2026-05-02T10:56:59Z</time><sat>30</sat></trkpt>
  <trkpt lat="30.29583130" lon="120.10444604"><ele>0.883</ele><time>2026-05-02T10:57:02Z</time><sat>29</sat></trkpt>
  <trkpt lat="30.29582408" lon="120.10485397"><ele>0.301</ele><time>2026-05-02T10:57:05Z</time><sat>29</sat></trkpt>
  <trkpt lat="30.29585214" lon="120.10523321"><ele>-0.017</ele><time>2026-05-02T10:57:08Z</time><sat>31</sat></trkpt>
  <trkpt lat="30.29583639" lon="120.10558833"><ele>0.959</ele><time>2026-05-02T10:57:11Z</time><sat>30</sat></trkpt>
  <trkpt lat="30.29582605" lon="120.10595553"><ele>-0.140</ele><time>2026-05-02T10:57:14Z</time><sat>30</sat></trkpt>
  <trkpt lat="30.29581851" lon="120.10629930"><ele>-0.392</ele><time>2026-05-02T10:57:17Z</time><sat>32</sat></trkpt>
  <trkpt lat="30.29581655" lon="120.10665806"><ele>0.163</ele><time>2026-05-02T10:57:20Z</time><sat>30</sat></trkpt>
  <trkpt lat="30.29583771" lon="120.10706021"><ele>0.007</ele><time>2026-05-02T10:57:23Z</time><sat>29</sat></trkpt>
  <trkpt lat="30.29583237" lon="120.10746168"><ele>1.297</ele><time>2026-05-02T10:57:26Z</time><sat>29</sat></trkpt>
  <trkpt lat="30.29582446" lon="120.10788403"><ele>0.835</ele><time>2026-05-02T10:57:29Z</time><sat>28</sat></trkpt>
  <trkpt lat="30.29583718" lon="120.10829286"><ele>1.436</ele><time>2026-05-02T10:57:32Z</time><sat>32</sat></trkpt>
  <trkpt lat="30.29583944" lon="120.10868404"><ele>3.377</ele><time>2026-05-02T10:57:35Z</time><sat>34</sat></trkpt>
  <trkpt lat="30.29583841" lon="120.10903827"><ele>3.520</ele><time>2026-05-02T10:57:38Z</time><sat>34</sat></trkpt>
  <trkpt lat="30.29583595" lon="120.10939754"><ele>3.390</ele><time>2026-05-02T10:57:41Z</time><sat>34</sat></trkpt>
  <trkpt lat="30.29583563" lon="120.10974117"><ele>2.985</ele><time>2026-05-02T10:57:44Z</time><sat>31</sat></trkpt>
  <trkpt lat="30.29582742" lon="120.11010630"><ele>2.584</ele><time>2026-05-02T10:57:47Z</time><sat>30</sat></trkpt>
  <trkpt lat="30.29583159" lon="120.11050540"><ele>2.793</ele><time>2026-05-02T10:57:50Z</time><sat>29</sat></trkpt>
  <trkpt lat="30.29582966" lon="120.11091954"><ele>3.565</ele><time>2026-05-02T10:57:53Z</time><sat>34</sat></trkpt>
  <trkpt lat="30.29583840" lon="120.11128116"><ele>3.704</ele><time>2026-05-02T10:57:56Z</time><sat>34</sat></trkpt>
  <trkpt lat="30.29586100" lon="120.11163598"><ele>4.556</ele><time>2026-05-02T10:57:59Z</time><sat>34</sat></trkpt>
  <trkpt lat="30.29588324" lon="120.11199293"><ele>4.142</ele><time>2026-05-02T10:58:02Z</time><sat>34</sat></trkpt>
  <trkpt lat="30.29590417" lon="120.11235130"><ele>4.395</ele><time>2026-05-02T10:58:05Z</time><sat>36</sat></trkpt>
  <trkpt lat="30.29592297" lon="120.11268440"><ele>4.896</ele><time>2026-05-02T10:58:08Z</time><sat>36</sat></trkpt>
  <trkpt lat="30.29594040" lon="120.11298953"><ele>4.290</ele><time>2026-05-02T10:58:11Z</time><sat>35</sat></trkpt>
  <trkpt lat="30.29595593" lon="120.11325587"><ele>5.305</ele><time>2026-05-02T10:58:14Z</time><sat>36</sat></trkpt>
  <trkpt lat="30.29597939" lon="120.11342788"><ele>5.436</ele><time>2026-05-02T10:58:17Z</time><sat>35</sat></trkpt>
  <trkpt lat="30.29598869" lon="120.11353901"><ele>6.229</ele><time>2026-05-02T10:58:20Z</time><sat>34</sat></trkpt>
  <trkpt lat="30.29599200" lon="120.11360124"><ele>7.292</ele><time>2026-05-02T10:58:23Z</time><sat>34</sat></trkpt>
  <trkpt lat="30.29598469" lon="120.11365214"><ele>7.653</ele><time>2026-05-02T10:58:26Z</time><sat>33</sat></trkpt>
  <trkpt lat="30.29594496" lon="120.11371355"><ele>9.043</ele><time>2026-05-02T10:58:29Z</time><sat>33</sat></trkpt>
  <trkpt lat="30.29579780" lon="120.11374359"><ele>10.190</ele><time>2026-05-02T10:58:32Z</time><sat>35</sat></trkpt>
  <trkpt lat="30.29556532" lon="120.11376606"><ele>12.907</ele><time>2026-05-02T10:58:35Z</time><sat>36</sat></trkpt>
  <trkpt lat="30.29528930" lon="120.11380028"><ele>14.203</ele><time>2026-05-02T10:58:38Z</time><sat>33</sat></trkpt>
  <trkpt lat="30.29500543" lon="120.11383274"><ele>15.088</ele><time>2026-05-02T10:58:41Z</time><sat>34</sat></trkpt>
  <trkpt lat="30.29471267" lon="120.11386616"><ele>14.641</ele><time>2026-05-02T10:58:44Z</time><sat>37</sat></trkpt>
  <trkpt lat="30.29440295" lon="120.11388513"><ele>13.540</ele><time>2026-05-02T10:58:47Z</time><sat>35</sat></trkpt>
  <trkpt lat="30.29409414" lon="120.11390974"><ele>14.322</ele><time>2026-05-02T10:58:50Z</time><sat>36</sat></trkpt>
  <trkpt lat="30.29377465" lon="120.11394604"><ele>15.209</ele><time>2026-05-02T10:58:53Z</time><sat>35</sat></trkpt>
  <trkpt lat="30.29347426" lon="120.11398236"><ele>14.965</ele><time>2026-05-02T10:58:56Z</time><sat>31</sat></trkpt>
  <trkpt lat="30.29316075" lon="120.11399681"><ele>15.274</ele><time>2026-05-02T10:58:59Z</time><sat>33</sat></trkpt>
  <trkpt lat="30.29219616" lon="120.11406040"><ele>21.535</ele><time>2026-05-02T10:59:08Z</time><sat>30</sat></trkpt>
  <trkpt lat="30.29191889" lon="120.11407252"><ele>25.961</ele><time>2026-05-02T10:59:11Z</time><sat>29</sat></trkpt>
  <trkpt lat="30.29163655" lon="120.11409486"><ele>28.699</ele><time>2026-05-02T10:59:14Z</time><sat>28</sat></trkpt>
  <trkpt lat="30.29132888" lon="120.11411647"><ele>30.420</ele><time>2026-05-02T10:59:17Z</time><sat>30</sat></trkpt>
  <trkpt lat="30.29102121" lon="120.11414074"><ele>31.001</ele><time>2026-05-02T10:59:20Z</time><sat>31</sat></trkpt>
  <trkpt lat="30.29069915" lon="120.11416346"><ele>30.549</ele><time>2026-05-02T10:59:23Z</time><sat>32</sat></trkpt>
  <trkpt lat="30.29036483" lon="120.11419326"><ele>31.560</ele><time>2026-05-02T10:59:26Z</time><sat>32</sat></trkpt>
  <trkpt lat="30.29006677" lon="120.11421384"><ele>31.165</ele><time>2026-05-02T10:59:29Z</time><sat>33</sat></trkpt>
  <trkpt lat="30.28981437" lon="120.11421674"><ele>28.385</ele><time>2026-05-02T10:59:32Z</time><sat>33</sat></trkpt>
  <trkpt lat="30.28952891" lon="120.11422572"><ele>26.212</ele><time>2026-05-02T10:59:35Z</time><sat>32</sat></trkpt>
  <trkpt lat="30.28918625" lon="120.11424410"><ele>25.361</ele><time>2026-05-02T10:59:38Z</time><sat>32</sat></trkpt>
  <trkpt lat="30.28885047" lon="120.11425854"><ele>24.491</ele><time>2026-05-02T10:59:41Z</time><sat>32</sat></trkpt>
  <trkpt lat="30.28850420" lon="120.11429049"><ele>24.561</ele><time>2026-05-02T10:59:44Z</time><sat>31</sat></trkpt>
  <trkpt lat="30.28815207" lon="120.11433562"><ele>26.748</ele><time>2026-05-02T10:59:47Z</time><sat>31</sat></trkpt>
  <trkpt lat="30.28779508" lon="120.11437933"><ele>25.969</ele><time>2026-05-02T10:59:50Z</time><sat>31</sat></trkpt>
  <trkpt lat="30.28746946" lon="120.11441360"><ele>27.575</ele><time>2026-05-02T10:59:53Z</time><sat>32</sat></trkpt>
  <trkpt lat="30.28714795" lon="120.11440996"><ele>30.187</ele><time>2026-05-02T10:59:56Z</time><sat>34</sat></trkpt>
  <trkpt lat="30.28683552" lon="120.11442806"><ele>29.496</ele><time>2026-05-02T10:59:59Z</time><sat>34</sat></trkpt>
  <trkpt lat="30.28646651" lon="120.11444832"><ele>29.914</ele><time>2026-05-02T11:00:02Z</time><sat>34</sat></trkpt>
  <trkpt lat="30.28611571" lon="120.11447689"><ele>29.961</ele><time>2026-05-02T11:00:05Z</time><sat>34</sat></trkpt>
  <trkpt lat="30.28582022" lon="120.11451418"><ele>30.085</ele><time>2026-05-02T11:00:08Z</time><sat>34</sat></trkpt>
  <trkpt lat="30.28558580" lon="120.11452948"><ele>28.796</ele><time>2026-05-02T11:00:11Z</time><sat>33</sat></trkpt>
  <trkpt lat="30.28541156" lon="120.11454400"><ele>27.352</ele><time>2026-05-02T11:00:14Z</time><sat>31</sat></trkpt>
  <trkpt lat="30.28530269" lon="120.11455271"><ele>25.565</ele><time>2026-05-02T11:00:17Z</time><sat>31</sat></trkpt>
  <trkpt lat="30.28524922" lon="120.11457093"><ele>25.252</ele><time>2026-05-02T11:00:20Z</time><sat>31</sat></trkpt>
  <trkpt lat="30.28525575" lon="120.11457043"><ele>25.196</ele><time>2026-05-02T11:00:23Z</time><sat>31</sat></trkpt>
  <trkpt lat="30.28525124" lon="120.11457047"><ele>23.290</ele><time>2026-05-02T11:00:26Z</time><sat>31</sat></trkpt>
  <trkpt lat="30.28524773" lon="120.11457169"><ele>23.264</ele><time>2026-05-02T11:00:29Z</time><sat>31</sat></trkpt>
  <trkpt lat="30.28524716" lon="120.11457369"><ele>23.910</ele><time>2026-05-02T11:00:32Z</time><sat>30</sat></trkpt>
  <trkpt lat="30.28524615" lon="120.11457405"><ele>24.179</ele><time>2026-05-02T11:00:35Z</time><sat>32</sat></trkpt>
  <trkpt lat="30.28524568" lon="120.11457437"><ele>24.461</ele><time>2026-05-02T11:00:38Z</time><sat>32</sat></trkpt>
  <trkpt lat="30.28524562" lon="120.11457511"><ele>24.569</ele><time>2026-05-02T11:00:41Z</time><sat>32</sat></trkpt>
  <trkpt lat="30.28524548" lon="120.11457607"><ele>24.701</ele><time>2026-05-02T11:00:44Z</time><sat>32</sat></trkpt>
  <trkpt lat="30.28524553" lon="120.11457705"><ele>24.840</ele><time>2026-05-02T11:00:47Z</time><sat>32</sat></trkpt>
  <trkpt lat="30.28524567" lon="120.11457756"><ele>24.903</ele><time>2026-05-02T11:00:50Z</time><sat>32</sat></trkpt>
  <trkpt lat="30.28524599" lon="120.11457876"><ele>24.928</ele><time>2026-05-02T11:00:53Z</time><sat>32</sat></trkpt>
  <trkpt lat="30.28524602" lon="120.11457961"><ele>25.052</ele><time>2026-05-02T11:00:56Z</time><sat>32</sat></trkpt>
  <trkpt lat="30.28523886" lon="120.11457658"><ele>25.340</ele><time>2026-05-02T11:00:59Z</time><sat>32</sat></trkpt>
  <trkpt lat="30.28522256" lon="120.11457916"><ele>25.460</ele><time>2026-05-02T11:01:02Z</time><sat>32</sat></trkpt>
  <trkpt lat="30.28519408" lon="120.11458166"><ele>25.156</ele><time>2026-05-02T11:01:05Z</time><sat>32</sat></trkpt>
  <trkpt lat="30.28512072" lon="120.11458623"><ele>24.733</ele><time>2026-05-02T11:01:08Z</time><sat>32</sat></trkpt>
  <trkpt lat="30.28496909" lon="120.11459006"><ele>25.283</ele><time>2026-05-02T11:01:11Z</time><sat>34</sat></trkpt>
  <trkpt lat="30.28478586" lon="120.11460520"><ele>24.074</ele><time>2026-05-02T11:01:14Z</time><sat>34</sat></trkpt>
  <trkpt lat="30.28460823" lon="120.11462069"><ele>22.894</ele><time>2026-05-02T11:01:17Z</time><sat>33</sat></trkpt>
  <trkpt lat="30.28441490" lon="120.11464164"><ele>18.760</ele><time>2026-05-02T11:01:20Z</time><sat>33</sat></trkpt>
  <trkpt lat="30.28415457" lon="120.11466895"><ele>17.870</ele><time>2026-05-02T11:01:23Z</time><sat>33</sat></trkpt>
  <trkpt lat="30.28384958" lon="120.11468373"><ele>16.800</ele><time>2026-05-02T11:01:26Z</time><sat>33</sat></trkpt>
  <trkpt lat="30.28356542" lon="120.11469698"><ele>17.603</ele><time>2026-05-02T11:01:29Z</time><sat>36</sat></trkpt>
  <trkpt lat="30.28327417" lon="120.11471187"><ele>17.711</ele><time>2026-05-02T11:01:32Z</time><sat>33</sat></trkpt>
  <trkpt lat="30.28297089" lon="120.11473736"><ele>18.361</ele><time>2026-05-02T11:01:35Z</time><sat>33</sat></trkpt>
  <trkpt lat="30.28270074" lon="120.11475281"><ele>18.227</ele><time>2026-05-02T11:01:38Z</time><sat>33</sat></trkpt>
  <trkpt lat="30.28242818" lon="120.11477438"><ele>17.537</ele><time>2026-05-02T11:01:41Z</time><sat>32</sat></trkpt>
  <trkpt lat="30.28218509" lon="120.11479428"><ele>17.250</ele><time>2026-05-02T11:01:44Z</time><sat>34</sat></trkpt>
  <trkpt lat="30.28196753" lon="120.11480541"><ele>17.204</ele><time>2026-05-02T11:01:47Z</time><sat>34</sat></trkpt>
  <trkpt lat="30.28181043" lon="120.11481552"><ele>15.460</ele><time>2026-05-02T11:01:50Z</time><sat>32</sat></trkpt>
  <trkpt lat="30.28171953" lon="120.11482280"><ele>15.191</ele><time>2026-05-02T11:01:53Z</time><sat>33</sat></trkpt>
  <trkpt lat="30.28167451" lon="120.11482359"><ele>14.727</ele><time>2026-05-02T11:01:56Z</time><sat>33</sat></trkpt>
  <trkpt lat="30.28164920" lon="120.11482298"><ele>14.236</ele><time>2026-05-02T11:01:59Z</time><sat>32</sat></trkpt>
  <trkpt lat="30.28165042" lon="120.11482084"><ele>14.142</ele><time>2026-05-02T11:02:02Z</time><sat>31</sat></trkpt>
  <trkpt lat="30.28165234" lon="120.11482161"><ele>14.239</ele><time>2026-05-02T11:02:05Z</time><sat>34</sat></trkpt>
  <trkpt lat="30.28165339" lon="120.11482327"><ele>14.288</ele><time>2026-05-02T11:02:08Z</time><sat>35</sat></trkpt>
  <trkpt lat="30.28165324" lon="120.11482418"><ele>14.459</ele><time>2026-05-02T11:02:11Z</time><sat>34</sat></trkpt>
  <trkpt lat="30.28165282" lon="120.11482515"><ele>14.523</ele><time>2026-05-02T11:02:14Z</time><sat>33</sat></trkpt>
  <trkpt lat="30.28165268" lon="120.11482550"><ele>14.583</ele><time>2026-05-02T11:02:17Z</time><sat>32</sat></trkpt>
  <trkpt lat="30.28165254" lon="120.11482577"><ele>14.634</ele><time>2026-05-02T11:02:20Z</time><sat>32</sat></trkpt>
  <trkpt lat="30.28165244" lon="120.11482598"><ele>14.680</ele><time>2026-05-02T11:02:23Z</time><sat>32</sat></trkpt>
  <trkpt lat="30.28165236" lon="120.11482619"><ele>14.714</ele><time>2026-05-02T11:02:26Z</time><sat>32</sat></trkpt>
  <trkpt lat="30.28165229" lon="120.11482641"><ele>14.748</ele><time>2026-05-02T11:02:29Z</time><sat>31</sat></trkpt>
  <trkpt lat="30.28165218" lon="120.11482668"><ele>14.812</ele><time>2026-05-02T11:02:32Z</time><sat>30</sat></trkpt>
  <trkpt lat="30.28165213" lon="120.11482696"><ele>14.861</ele><time>2026-05-02T11:02:35Z</time><sat>32</sat></trkpt>
  <trkpt lat="30.28165207" lon="120.11482727"><ele>14.968</ele><time>2026-05-02T11:02:38Z</time><sat>32</sat></trkpt>
  <trkpt lat="30.28165200" lon="120.11482768"><ele>15.085</ele><time>2026-05-02T11:02:41Z</time><sat>32</sat></trkpt>
  <trkpt lat="30.28165198" lon="120.11482794"><ele>15.095</ele><time>2026-05-02T11:02:44Z</time><sat>32</sat></trkpt>
  <trkpt lat="30.28165194" lon="120.11482822"><ele>15.156</ele><time>2026-05-02T11:02:47Z</time><sat>34</sat></trkpt>
  <trkpt lat="30.28165184" lon="120.11482832"><ele>15.212</ele><time>2026-05-02T11:02:50Z</time><sat>35</sat></trkpt>
  <trkpt lat="30.28165173" lon="120.11482848"><ele>15.255</ele><time>2026-05-02T11:02:53Z</time><sat>36</sat></trkpt>
  <trkpt lat="30.28165164" lon="120.11482870"><ele>15.285</ele><time>2026-05-02T11:02:56Z</time><sat>35</sat></trkpt>
  <trkpt lat="30.28165156" lon="120.11482891"><ele>15.321</ele><time>2026-05-02T11:02:59Z</time><sat>33</sat></trkpt>
  <trkpt lat="30.28165149" lon="120.11482909"><ele>15.353</ele><time>2026-05-02T11:03:02Z</time><sat>33</sat></trkpt>
  <trkpt lat="30.28165143" lon="120.11482922"><ele>15.387</ele><time>2026-05-02T11:03:05Z</time><sat>35</sat></trkpt>
  <trkpt lat="30.28165147" lon="120.11482946"><ele>15.399</ele><time>2026-05-02T11:03:08Z</time><sat>36</sat></trkpt>
  <trkpt lat="30.28165140" lon="120.11482967"><ele>15.431</ele><time>2026-05-02T11:03:11Z</time><sat>33</sat></trkpt>
  <trkpt lat="30.28164686" lon="120.11483019"><ele>15.737</ele><time>2026-05-02T11:03:14Z</time><sat>31</sat></trkpt>
  <trkpt lat="30.28154843" lon="120.11483711"><ele>15.714</ele><time>2026-05-02T11:03:17Z</time><sat>32</sat></trkpt>
  <trkpt lat="30.28135916" lon="120.11485341"><ele>16.400</ele><time>2026-05-02T11:03:20Z</time><sat>33</sat></trkpt>
  <trkpt lat="30.28109482" lon="120.11488840"><ele>16.317</ele><time>2026-05-02T11:03:23Z</time><sat>32</sat></trkpt>
  <trkpt lat="30.28080433" lon="120.11490891"><ele>16.207</ele><time>2026-05-02T11:03:26Z</time><sat>35</sat></trkpt>
  <trkpt lat="30.28050575" lon="120.11493164"><ele>17.260</ele><time>2026-05-02T11:03:29Z</time><sat>33</sat></trkpt>
  <trkpt lat="30.28020854" lon="120.11496085"><ele>17.142</ele><time>2026-05-02T11:03:32Z</time><sat>35</sat></trkpt>
  <trkpt lat="30.27989425" lon="120.11499031"><ele>17.584</ele><time>2026-05-02T11:03:35Z</time><sat>37</sat></trkpt>
  <trkpt lat="30.27958651" lon="120.11500074"><ele>18.286</ele><time>2026-05-02T11:03:38Z</time><sat>37</sat></trkpt>
  <trkpt lat="30.27931920" lon="120.11501284"><ele>17.616</ele><time>2026-05-02T11:03:41Z</time><sat>36</sat></trkpt>
  <trkpt lat="30.27915201" lon="120.11501460"><ele>17.656</ele><time>2026-05-02T11:03:44Z</time><sat>36</sat></trkpt>
  <trkpt lat="30.27908471" lon="120.11502682"><ele>18.891</ele><time>2026-05-02T11:03:47Z</time><sat>34</sat></trkpt>
  <trkpt lat="30.27906677" lon="120.11503346"><ele>20.203</ele><time>2026-05-02T11:03:50Z</time><sat>33</sat></trkpt>
  <trkpt lat="30.27905926" lon="120.11504021"><ele>22.425</ele><time>2026-05-02T11:03:53Z</time><sat>32</sat></trkpt>
  <trkpt lat="30.27906144" lon="120.11503659"><ele>23.243</ele><time>2026-05-02T11:03:56Z</time><sat>31</sat></trkpt>
  <trkpt lat="30.27905680" lon="120.11504036"><ele>24.354</ele><time>2026-05-02T11:03:59Z</time><sat>30</sat></trkpt>
  <trkpt lat="30.27904987" lon="120.11503865"><ele>25.277</ele><time>2026-05-02T11:04:02Z</time><sat>31</sat></trkpt>
  <trkpt lat="30.27904580" lon="120.11503993"><ele>25.827</ele><time>2026-05-02T11:04:05Z</time><sat>31</sat></trkpt>
  <trkpt lat="30.27904324" lon="120.11504374"><ele>26.100</ele><time>2026-05-02T11:04:08Z</time><sat>32</sat></trkpt>
  <trkpt lat="30.27904567" lon="120.11504485"><ele>26.311</ele><time>2026-05-02T11:04:11Z</time><sat>32</sat></trkpt>
  <trkpt lat="30.27904450" lon="120.11504757"><ele>26.585</ele><time>2026-05-02T11:04:14Z</time><sat>30</sat></trkpt>
  <trkpt lat="30.27903933" lon="120.11505030"><ele>26.802</ele><time>2026-05-02T11:04:17Z</time><sat>31</sat></trkpt>
  <trkpt lat="30.27903880" lon="120.11505672"><ele>27.246</ele><time>2026-05-02T11:04:20Z</time><sat>32</sat></trkpt>
  <trkpt lat="30.27903763" lon="120.11505903"><ele>27.717</ele><time>2026-05-02T11:04:23Z</time><sat>33</sat></trkpt>
  <trkpt lat="30.27903531" lon="120.11505741"><ele>28.247</ele><time>2026-05-02T11:04:26Z</time><sat>32</sat></trkpt>
  <trkpt lat="30.27903382" lon="120.11505941"><ele>28.775</ele><time>2026-05-02T11:04:29Z</time><sat>30</sat></trkpt>
  <trkpt lat="30.27903170" lon="120.11505928"><ele>29.060</ele><time>2026-05-02T11:04:32Z</time><sat>31</sat></trkpt>
  <trkpt lat="30.27902646" lon="120.11505909"><ele>29.781</ele><time>2026-05-02T11:04:35Z</time><sat>32</sat></trkpt>
  <trkpt lat="30.27902543" lon="120.11505829"><ele>29.785</ele><time>2026-05-02T11:04:38Z</time><sat>30</sat></trkpt>
  <trkpt lat="30.27902636" lon="120.11505822"><ele>29.929</ele><time>2026-05-02T11:04:41Z</time><sat>30</sat></trkpt>
  <trkpt lat="30.27902621" lon="120.11505793"><ele>29.884</ele><time>2026-05-02T11:04:44Z</time><sat>31</sat></trkpt>
  <trkpt lat="30.27902556" lon="120.11505831"><ele>29.939</ele><time>2026-05-02T11:04:47Z</time><sat>31</sat></trkpt>
  <trkpt lat="30.27902537" lon="120.11505865"><ele>29.991</ele><time>2026-05-02T11:04:50Z</time><sat>30</sat></trkpt>
  <trkpt lat="30.27902526" lon="120.11505908"><ele>30.057</ele><time>2026-05-02T11:04:53Z</time><sat>29</sat></trkpt>
  <trkpt lat="30.27902518" lon="120.11505953"><ele>30.098</ele><time>2026-05-02T11:04:56Z</time><sat>30</sat></trkpt>
  <trkpt lat="30.27902508" lon="120.11505990"><ele>30.146</ele><time>2026-05-02T11:04:59Z</time><sat>31</sat></trkpt>
  <trkpt lat="30.27902504" lon="120.11506036"><ele>30.181</ele><time>2026-05-02T11:05:02Z</time><sat>31</sat></trkpt>
  <trkpt lat="30.27902541" lon="120.11506113"><ele>30.181</ele><time>2026-05-02T11:05:05Z</time><sat>32</sat></trkpt>
  <trkpt lat="30.27902548" lon="120.11506164"><ele>30.212</ele><time>2026-05-02T11:05:08Z</time><sat>32</sat></trkpt>
  <trkpt lat="30.27902549" lon="120.11506203"><ele>30.227</ele><time>2026-05-02T11:05:11Z</time><sat>31</sat></trkpt>
  <trkpt lat="30.27902549" lon="120.11506239"><ele>30.251</ele><time>2026-05-02T11:05:14Z</time><sat>31</sat></trkpt>
  <trkpt lat="30.27902535" lon="120.11506276"><ele>30.314</ele><time>2026-05-02T11:05:17Z</time><sat>33</sat></trkpt>
  <trkpt lat="30.27902521" lon="120.11506305"><ele>30.350</ele><time>2026-05-02T11:05:20Z</time><sat>32</sat></trkpt>
  <trkpt lat="30.27900175" lon="120.11506419"><ele>30.503</ele><time>2026-05-02T11:05:23Z</time><sat>33</sat></trkpt>
  <trkpt lat="30.27885572" lon="120.11507108"><ele>30.142</ele><time>2026-05-02T11:05:26Z</time><sat>32</sat></trkpt>
  <trkpt lat="30.27864586" lon="120.11507587"><ele>28.959</ele><time>2026-05-02T11:05:29Z</time><sat>35</sat></trkpt>
  <trkpt lat="30.27842828" lon="120.11508118"><ele>25.543</ele><time>2026-05-02T11:05:32Z</time><sat>36</sat></trkpt>
  <trkpt lat="30.27820197" lon="120.11509423"><ele>23.822</ele><time>2026-05-02T11:05:35Z</time><sat>35</sat></trkpt>
  <trkpt lat="30.27791652" lon="120.11511252"><ele>22.677</ele><time>2026-05-02T11:05:38Z</time><sat>35</sat></trkpt>
  <trkpt lat="30.27762837" lon="120.11513507"><ele>22.558</ele><time>2026-05-02T11:05:41Z</time><sat>35</sat></trkpt>
  <trkpt lat="30.27745563" lon="120.11514948"><ele>21.356</ele><time>2026-05-02T11:05:44Z</time><sat>36</sat></trkpt>
  <trkpt lat="30.27737749" lon="120.11517767"><ele>20.851</ele><time>2026-05-02T11:05:47Z</time><sat>35</sat></trkpt>
  <trkpt lat="30.27736263" lon="120.11518894"><ele>19.841</ele><time>2026-05-02T11:05:50Z</time><sat>33</sat></trkpt>
  <trkpt lat="30.27735924" lon="120.11519634"><ele>20.283</ele><time>2026-05-02T11:05:53Z</time><sat>34</sat></trkpt>
  <trkpt lat="30.27735266" lon="120.11519960"><ele>20.562</ele><time>2026-05-02T11:05:56Z</time><sat>35</sat></trkpt>
  <trkpt lat="30.27735595" lon="120.11519361"><ele>19.120</ele><time>2026-05-02T11:05:59Z</time><sat>34</sat></trkpt>
  <trkpt lat="30.27735533" lon="120.11518277"><ele>17.706</ele><time>2026-05-02T11:06:02Z</time><sat>33</sat></trkpt>
  <trkpt lat="30.27735447" lon="120.11517935"><ele>18.180</ele><time>2026-05-02T11:06:05Z</time><sat>35</sat></trkpt>
  <trkpt lat="30.27735426" lon="120.11517563"><ele>17.106</ele><time>2026-05-02T11:06:08Z</time><sat>35</sat></trkpt>
  <trkpt lat="30.27733824" lon="120.11517650"><ele>18.027</ele><time>2026-05-02T11:06:11Z</time><sat>35</sat></trkpt>
  <trkpt lat="30.27728554" lon="120.11518210"><ele>18.762</ele><time>2026-05-02T11:06:14Z</time><sat>37</sat></trkpt>
  <trkpt lat="30.27718256" lon="120.11519127"><ele>19.211</ele><time>2026-05-02T11:06:17Z</time><sat>36</sat></trkpt>
  <trkpt lat="30.27704532" lon="120.11520372"><ele>19.791</ele><time>2026-05-02T11:06:20Z</time><sat>36</sat></trkpt>
  <trkpt lat="30.27690217" lon="120.11521312"><ele>19.820</ele><time>2026-05-02T11:06:23Z</time><sat>35</sat></trkpt>
  <trkpt lat="30.27674556" lon="120.11521819"><ele>19.468</ele><time>2026-05-02T11:06:26Z</time><sat>34</sat></trkpt>
  <trkpt lat="30.27654603" lon="120.11522272"><ele>17.702</ele><time>2026-05-02T11:06:29Z</time><sat>37</sat></trkpt>
  <trkpt lat="30.27633965" lon="120.11523261"><ele>17.661</ele><time>2026-05-02T11:06:32Z</time><sat>36</sat></trkpt>
  <trkpt lat="30.27615607" lon="120.11524206"><ele>16.471</ele><time>2026-05-02T11:06:35Z</time><sat>36</sat></trkpt>
  <trkpt lat="30.27595488" lon="120.11525701"><ele>16.479</ele><time>2026-05-02T11:06:38Z</time><sat>35</sat></trkpt>
  <trkpt lat="30.27575564" lon="120.11527377"><ele>15.685</ele><time>2026-05-02T11:06:41Z</time><sat>36</sat></trkpt>
  <trkpt lat="30.27553879" lon="120.11530613"><ele>14.315</ele><time>2026-05-02T11:06:44Z</time><sat>34</sat></trkpt>
  <trkpt lat="30.27533617" lon="120.11534564"><ele>13.942</ele><time>2026-05-02T11:06:47Z</time><sat>35</sat></trkpt>
  <trkpt lat="30.27520706" lon="120.11536049"><ele>13.251</ele><time>2026-05-02T11:06:50Z</time><sat>35</sat></trkpt>
  <trkpt lat="30.27514108" lon="120.11535583"><ele>12.906</ele><time>2026-05-02T11:06:53Z</time><sat>33</sat></trkpt>
  <trkpt lat="30.27511799" lon="120.11536952"><ele>14.282</ele><time>2026-05-02T11:06:56Z</time><sat>33</sat></trkpt>
  <trkpt lat="30.27510604" lon="120.11537850"><ele>15.850</ele><time>2026-05-02T11:06:59Z</time><sat>31</sat></trkpt>
  <trkpt lat="30.27509523" lon="120.11538341"><ele>16.933</ele><time>2026-05-02T11:07:02Z</time><sat>30</sat></trkpt>
  <trkpt lat="30.27509072" lon="120.11539094"><ele>18.270</ele><time>2026-05-02T11:07:05Z</time><sat>31</sat></trkpt>
  <trkpt lat="30.27508826" lon="120.11539878"><ele>19.272</ele><time>2026-05-02T11:07:08Z</time><sat>31</sat></trkpt>
  <trkpt lat="30.27508651" lon="120.11540589"><ele>20.439</ele><time>2026-05-02T11:07:11Z</time><sat>32</sat></trkpt>
  <trkpt lat="30.27508542" lon="120.11541087"><ele>21.088</ele><time>2026-05-02T11:07:14Z</time><sat>32</sat></trkpt>
  <trkpt lat="30.27508467" lon="120.11541308"><ele>21.490</ele><time>2026-05-02T11:07:17Z</time><sat>31</sat></trkpt>
  <trkpt lat="30.27508441" lon="120.11541420"><ele>21.728</ele><time>2026-05-02T11:07:20Z</time><sat>31</sat></trkpt>
  <trkpt lat="30.27508432" lon="120.11541515"><ele>21.850</ele><time>2026-05-02T11:07:23Z</time><sat>33</sat></trkpt>
  <trkpt lat="30.27508432" lon="120.11541572"><ele>21.898</ele><time>2026-05-02T11:07:26Z</time><sat>33</sat></trkpt>
  <trkpt lat="30.27507878" lon="120.11541644"><ele>22.162</ele><time>2026-05-02T11:07:29Z</time><sat>34</sat></trkpt>
  <trkpt lat="30.27497743" lon="120.11542446"><ele>23.534</ele><time>2026-05-02T11:07:32Z</time><sat>33</sat></trkpt>
  <trkpt lat="30.27480038" lon="120.11541922"><ele>22.089</ele><time>2026-05-02T11:07:35Z</time><sat>32</sat></trkpt>
  <trkpt lat="30.27463136" lon="120.11542871"><ele>19.730</ele><time>2026-05-02T11:07:38Z</time><sat>35</sat></trkpt>
  <trkpt lat="30.27445725" lon="120.11549049"><ele>18.160</ele><time>2026-05-02T11:07:41Z</time><sat>35</sat></trkpt>
  <trkpt lat="30.27435648" lon="120.11561605"><ele>16.853</ele><time>2026-05-02T11:07:44Z</time><sat>34</sat></trkpt>
  <trkpt lat="30.27433149" lon="120.11585975"><ele>14.401</ele><time>2026-05-02T11:07:47Z</time><sat>35</sat></trkpt>
  <trkpt lat="30.27434081" lon="120.11622181"><ele>12.844</ele><time>2026-05-02T11:07:50Z</time><sat>35</sat></trkpt>
  <trkpt lat="30.27435388" lon="120.11661686"><ele>12.250</ele><time>2026-05-02T11:07:53Z</time><sat>35</sat></trkpt>
  <trkpt lat="30.27436008" lon="120.11697396"><ele>11.587</ele><time>2026-05-02T11:07:56Z</time><sat>36</sat></trkpt>
  <trkpt lat="30.27436104" lon="120.11737728"><ele>10.637</ele><time>2026-05-02T11:07:59Z</time><sat>35</sat></trkpt>
  <trkpt lat="30.27435651" lon="120.11777465"><ele>9.912</ele><time>2026-05-02T11:08:02Z</time><sat>37</sat></trkpt>
  <trkpt lat="30.27434936" lon="120.11811889"><ele>9.534</ele><time>2026-05-02T11:08:05Z</time><sat>37</sat></trkpt>
  <trkpt lat="30.27433213" lon="120.11836699"><ele>10.438</ele><time>2026-05-02T11:08:08Z</time><sat>38</sat></trkpt>
  <trkpt lat="30.27430587" lon="120.11851478"><ele>11.079</ele><time>2026-05-02T11:08:11Z</time><sat>38</sat></trkpt>
  <trkpt lat="30.27427630" lon="120.11864535"><ele>12.123</ele><time>2026-05-02T11:08:14Z</time><sat>38</sat></trkpt>
  <trkpt lat="30.27426915" lon="120.11871278"><ele>12.102</ele><time>2026-05-02T11:08:17Z</time><sat>37</sat></trkpt>
  <trkpt lat="30.27425535" lon="120.11870688"><ele>12.497</ele><time>2026-05-02T11:08:20Z</time><sat>36</sat></trkpt>
  <trkpt lat="30.27425523" lon="120.11876363"><ele>12.572</ele><time>2026-05-02T11:08:23Z</time><sat>36</sat></trkpt>
  <trkpt lat="30.27425193" lon="120.11888350"><ele>10.883</ele><time>2026-05-02T11:08:26Z</time><sat>36</sat></trkpt>
  <trkpt lat="30.27424815" lon="120.11894735"><ele>10.301</ele><time>2026-05-02T11:08:29Z</time><sat>36</sat></trkpt>
  <trkpt lat="30.27424197" lon="120.11899162"><ele>10.419</ele><time>2026-05-02T11:08:32Z</time><sat>37</sat></trkpt>
  <trkpt lat="30.27423618" lon="120.11905394"><ele>10.694</ele><time>2026-05-02T11:08:35Z</time><sat>36</sat></trkpt>
  <trkpt lat="30.27423356" lon="120.11909688"><ele>11.150</ele><time>2026-05-02T11:08:38Z</time><sat>38</sat></trkpt>
  <trkpt lat="30.27423128" lon="120.11912772"><ele>10.779</ele><time>2026-05-02T11:08:41Z</time><sat>38</sat></trkpt>
  <trkpt lat="30.27422545" lon="120.11915563"><ele>10.811</ele><time>2026-05-02T11:08:44Z</time><sat>37</sat></trkpt>
  <trkpt lat="30.27421309" lon="120.11918480"><ele>10.686</ele><time>2026-05-02T11:08:47Z</time><sat>36</sat></trkpt>
  <trkpt lat="30.27415395" lon="120.11921049"><ele>10.589</ele><time>2026-05-02T11:08:50Z</time><sat>34</sat></trkpt>
  <trkpt lat="30.27400504" lon="120.11913893"><ele>10.710</ele><time>2026-05-02T11:08:53Z</time><sat>34</sat></trkpt>
  <trkpt lat="30.27382392" lon="120.11901884"><ele>11.124</ele><time>2026-05-02T11:08:56Z</time><sat>34</sat></trkpt>
  <trkpt lat="30.27363450" lon="120.11890177"><ele>11.315</ele><time>2026-05-02T11:08:59Z</time><sat>36</sat></trkpt>
  <trkpt lat="30.27347125" lon="120.11879805"><ele>10.310</ele><time>2026-05-02T11:09:02Z</time><sat>36</sat></trkpt>
  <trkpt lat="30.27334847" lon="120.11870745"><ele>11.165</ele><time>2026-05-02T11:09:05Z</time><sat>35</sat></trkpt>
  <trkpt lat="30.27325294" lon="120.11860438"><ele>12.119</ele><time>2026-05-02T11:09:08Z</time><sat>34</sat></trkpt>
  <trkpt lat="30.27315285" lon="120.11852302"><ele>11.985</ele><time>2026-05-02T11:09:11Z</time><sat>32</sat></trkpt>
  <trkpt lat="30.27309584" lon="120.11848524"><ele>12.180</ele><time>2026-05-02T11:09:14Z</time><sat>34</sat></trkpt>
  <trkpt lat="30.27307957" lon="120.11847641"><ele>11.833</ele><time>2026-05-02T11:09:17Z</time><sat>34</sat></trkpt>
  <trkpt lat="30.27307972" lon="120.11847590"><ele>11.741</ele><time>2026-05-02T11:09:20Z</time><sat>34</sat></trkpt>
  <trkpt lat="30.27307817" lon="120.11847379"><ele>11.561</ele><time>2026-05-02T11:09:23Z</time><sat>34</sat></trkpt>
  <trkpt lat="30.27307732" lon="120.11847271"><ele>11.697</ele><time>2026-05-02T11:09:26Z</time><sat>34</sat></trkpt>
  <trkpt lat="30.27307674" lon="120.11847295"><ele>11.719</ele><time>2026-05-02T11:09:29Z</time><sat>30</sat></trkpt>
  <trkpt lat="30.27307659" lon="120.11847300"><ele>11.728</ele><time>2026-05-02T11:09:32Z</time><sat>30</sat></trkpt>
  <trkpt lat="30.27307656" lon="120.11847299"><ele>11.732</ele><time>2026-05-02T11:09:35Z</time><sat>29</sat></trkpt>
  <trkpt lat="30.27307654" lon="120.11847300"><ele>11.735</ele><time>2026-05-02T11:09:38Z</time><sat>30</sat></trkpt>
  <trkpt lat="30.27307652" lon="120.11847307"><ele>11.742</ele><time>2026-05-02T11:09:41Z</time><sat>32</sat></trkpt>
  <trkpt lat="30.27307651" lon="120.11847315"><ele>11.746</ele><time>2026-05-02T11:09:44Z</time><sat>34</sat></trkpt>
  <trkpt lat="30.27307653" lon="120.11847328"><ele>11.773</ele><time>2026-05-02T11:09:47Z</time><sat>33</sat></trkpt>
  <trkpt lat="30.27307653" lon="120.11847342"><ele>11.776</ele><time>2026-05-02T11:09:50Z</time><sat>34</sat></trkpt>
  <trkpt lat="30.27307649" lon="120.11847350"><ele>11.777</ele><time>2026-05-02T11:09:53Z</time><sat>34</sat></trkpt>
  <trkpt lat="30.27307648" lon="120.11847352"><ele>11.775</ele><time>2026-05-02T11:09:56Z</time><sat>33</sat></trkpt>
  <trkpt lat="30.27307641" lon="120.11847361"><ele>11.785</ele><time>2026-05-02T11:09:59Z</time><sat>33</sat></trkpt>
  <trkpt lat="30.27307637" lon="120.11847366"><ele>11.794</ele><time>2026-05-02T11:10:02Z</time><sat>33</sat></trkpt>
  <trkpt lat="30.27306564" lon="120.11846554"><ele>11.705</ele><time>2026-05-02T11:10:05Z</time><sat>33</sat></trkpt>
  <trkpt lat="30.27299945" lon="120.11841507"><ele>11.456</ele><time>2026-05-02T11:10:08Z</time><sat>33</sat></trkpt>
  <trkpt lat="30.27292559" lon="120.11837002"><ele>10.924</ele><time>2026-05-02T11:10:11Z</time><sat>33</sat></trkpt>
  <trkpt lat="30.27282489" lon="120.11835158"><ele>9.376</ele><time>2026-05-02T11:10:14Z</time><sat>34</sat></trkpt>
  <trkpt lat="30.27273003" lon="120.11838912"><ele>8.438</ele><time>2026-05-02T11:10:17Z</time><sat>35</sat></trkpt>
  <trkpt lat="30.27265247" lon="120.11850483"><ele>8.723</ele><time>2026-05-02T11:10:20Z</time><sat>30</sat></trkpt>
  <trkpt lat="30.27254578" lon="120.11868284"><ele>9.019</ele><time>2026-05-02T11:10:23Z</time><sat>31</sat></trkpt>
  <trkpt lat="30.27240559" lon="120.11893715"><ele>8.471</ele><time>2026-05-02T11:10:26Z</time><sat>34</sat></trkpt>
  <trkpt lat="30.27226271" lon="120.11921858"><ele>7.146</ele><time>2026-05-02T11:10:29Z</time><sat>34</sat></trkpt>
  <trkpt lat="30.27211363" lon="120.11947656"><ele>5.817</ele><time>2026-05-02T11:10:32Z</time><sat>35</sat></trkpt>
  <trkpt lat="30.27202755" lon="120.11965474"><ele>5.964</ele><time>2026-05-02T11:10:35Z</time><sat>29</sat></trkpt>
  <trkpt lat="30.27200411" lon="120.11970251"><ele>6.313</ele><time>2026-05-02T11:10:38Z</time><sat>31</sat></trkpt>
  <trkpt lat="30.27199219" lon="120.11972544"><ele>6.351</ele><time>2026-05-02T11:10:41Z</time><sat>35</sat></trkpt>
  <trkpt lat="30.27197327" lon="120.11976096"><ele>6.871</ele><time>2026-05-02T11:10:44Z</time><sat>33</sat></trkpt>
  <trkpt lat="30.27194976" lon="120.11979287"><ele>6.896</ele><time>2026-05-02T11:10:47Z</time><sat>31</sat></trkpt>
  <trkpt lat="30.27192682" lon="120.11980736"><ele>8.319</ele><time>2026-05-02T11:10:50Z</time><sat>30</sat></trkpt>
  <trkpt lat="30.27190898" lon="120.11980751"><ele>8.787</ele><time>2026-05-02T11:10:53Z</time><sat>31</sat></trkpt>
  <trkpt lat="30.27187278" lon="120.11979203"><ele>10.506</ele><time>2026-05-02T11:10:56Z</time><sat>31</sat></trkpt>
  <trkpt lat="30.27181442" lon="120.11975305"><ele>10.638</ele><time>2026-05-02T11:10:59Z</time><sat>33</sat></trkpt>
  <trkpt lat="30.27178459" lon="120.11976377"><ele>13.143</ele><time>2026-05-02T11:11:02Z</time><sat>34</sat></trkpt>
  <trkpt lat="30.27177396" lon="120.11977775"><ele>13.821</ele><time>2026-05-02T11:11:05Z</time><sat>33</sat></trkpt>
  <trkpt lat="30.27176941" lon="120.11977993"><ele>15.931</ele><time>2026-05-02T11:11:08Z</time><sat>31</sat></trkpt>
  <trkpt lat="30.27176485" lon="120.11977388"><ele>16.541</ele><time>2026-05-02T11:11:11Z</time><sat>32</sat></trkpt>
  <trkpt lat="30.27176453" lon="120.11977251"><ele>17.895</ele><time>2026-05-02T11:11:14Z</time><sat>33</sat></trkpt>
  <trkpt lat="30.27176314" lon="120.11975719"><ele>16.688</ele><time>2026-05-02T11:11:17Z</time><sat>34</sat></trkpt>
  <trkpt lat="30.27170062" lon="120.11972856"><ele>15.923</ele><time>2026-05-02T11:11:20Z</time><sat>32</sat></trkpt>
  <trkpt lat="30.27165301" lon="120.11970927"><ele>16.198</ele><time>2026-05-02T11:11:23Z</time><sat>33</sat></trkpt>
  <trkpt lat="30.27162116" lon="120.11969854"><ele>16.836</ele><time>2026-05-02T11:11:26Z</time><sat>33</sat></trkpt>
  <trkpt lat="30.27157848" lon="120.11968455"><ele>17.453</ele><time>2026-05-02T11:11:29Z</time><sat>35</sat></trkpt>
  <trkpt lat="30.27150991" lon="120.11965857"><ele>18.465</ele><time>2026-05-02T11:11:32Z</time><sat>35</sat></trkpt>
  <trkpt lat="30.27144556" lon="120.11963243"><ele>19.161</ele><time>2026-05-02T11:11:35Z</time><sat>35</sat></trkpt>
  <trkpt lat="30.27138560" lon="120.11960469"><ele>18.523</ele><time>2026-05-02T11:11:38Z</time><sat>34</sat></trkpt>
  <trkpt lat="30.27132480" lon="120.11959917"><ele>18.003</ele><time>2026-05-02T11:11:41Z</time><sat>35</sat></trkpt>
  <trkpt lat="30.27128770" lon="120.11963375"><ele>17.904</ele><time>2026-05-02T11:11:44Z</time><sat>35</sat></trkpt>
  <trkpt lat="30.27126586" lon="120.11969112"><ele>16.965</ele><time>2026-05-02T11:11:47Z</time><sat>34</sat></trkpt>
  <trkpt lat="30.27124257" lon="120.11978578"><ele>16.209</ele><time>2026-05-02T11:11:50Z</time><sat>33</sat></trkpt>
  <trkpt lat="30.27119826" lon="120.11990136"><ele>17.652</ele><time>2026-05-02T11:11:53Z</time><sat>30</sat></trkpt>
  <trkpt lat="30.27116335" lon="120.12001080"><ele>15.954</ele><time>2026-05-02T11:11:56Z</time><sat>29</sat></trkpt>
  <trkpt lat="30.27113265" lon="120.12013347"><ele>14.328</ele><time>2026-05-02T11:11:59Z</time><sat>30</sat></trkpt>
  <trkpt lat="30.27110208" lon="120.12024799"><ele>14.114</ele><time>2026-05-02T11:12:02Z</time><sat>29</sat></trkpt>
  <trkpt lat="30.27107917" lon="120.12036922"><ele>13.480</ele><time>2026-05-02T11:12:05Z</time><sat>28</sat></trkpt>
  <trkpt lat="30.27105209" lon="120.12048194"><ele>12.901</ele><time>2026-05-02T11:12:08Z</time><sat>28</sat></trkpt>
  <trkpt lat="30.27102427" lon="120.12057305"><ele>11.773</ele><time>2026-05-02T11:12:11Z</time><sat>30</sat></trkpt>
  <trkpt lat="30.27097643" lon="120.12061740"><ele>12.157</ele><time>2026-05-02T11:12:14Z</time><sat>30</sat></trkpt>
  <trkpt lat="30.27090550" lon="120.12060596"><ele>10.955</ele><time>2026-05-02T11:12:17Z</time><sat>30</sat></trkpt>
  <trkpt lat="30.27081331" lon="120.12056397"><ele>11.260</ele><time>2026-05-02T11:12:20Z</time><sat>27</sat></trkpt>
  <trkpt lat="30.27071247" lon="120.12052521"><ele>12.581</ele><time>2026-05-02T11:12:23Z</time><sat>28</sat></trkpt>
  <trkpt lat="30.27061427" lon="120.12048710"><ele>13.607</ele><time>2026-05-02T11:12:26Z</time><sat>27</sat></trkpt>
  <trkpt lat="30.27052781" lon="120.12046205"><ele>14.594</ele><time>2026-05-02T11:12:29Z</time><sat>24</sat></trkpt>
  <trkpt lat="30.27049644" lon="120.12045383"><ele>15.732</ele><time>2026-05-02T11:12:32Z</time><sat>24</sat></trkpt>
  <trkpt lat="30.27048533" lon="120.12046229"><ele>21.062</ele><time>2026-05-02T11:12:35Z</time><sat>28</sat></trkpt>
  <trkpt lat="30.27048107" lon="120.12046781"><ele>24.242</ele><time>2026-05-02T11:12:38Z</time><sat>29</sat></trkpt>
  <trkpt lat="30.27047738" lon="120.12046374"><ele>26.280</ele><time>2026-05-02T11:12:41Z</time><sat>29</sat></trkpt>
  <trkpt lat="30.27047570" lon="120.12046003"><ele>27.242</ele><time>2026-05-02T11:12:44Z</time><sat>28</sat></trkpt>
  <trkpt lat="30.27047474" lon="120.12045914"><ele>27.935</ele><time>2026-05-02T11:12:47Z</time><sat>27</sat></trkpt>
  <trkpt lat="30.27048364" lon="120.12045800"><ele>30.065</ele><time>2026-05-02T11:12:50Z</time><sat>30</sat></trkpt>
  <trkpt lat="30.27049714" lon="120.12047880"><ele>29.842</ele><time>2026-05-02T11:12:53Z</time><sat>32</sat></trkpt>
  <trkpt lat="30.27046609" lon="120.12050755"><ele>30.232</ele><time>2026-05-02T11:12:56Z</time><sat>32</sat></trkpt>
  <trkpt lat="30.27043246" lon="120.12050769"><ele>30.737</ele><time>2026-05-02T11:12:59Z</time><sat>31</sat></trkpt>
  <trkpt lat="30.27040505" lon="120.12051762"><ele>30.571</ele><time>2026-05-02T11:13:02Z</time><sat>30</sat></trkpt>
  <trkpt lat="30.27038220" lon="120.12052411"><ele>31.481</ele><time>2026-05-02T11:13:05Z</time><sat>30</sat></trkpt>
  <trkpt lat="30.27035603" lon="120.12052520"><ele>31.310</ele><time>2026-05-02T11:13:08Z</time><sat>31</sat></trkpt>
  <trkpt lat="30.27032821" lon="120.12052192"><ele>25.836</ele><time>2026-05-02T11:13:11Z</time><sat>28</sat></trkpt>
  <trkpt lat="30.27034090" lon="120.12050381"><ele>24.783</ele><time>2026-05-02T11:13:14Z</time><sat>25</sat></trkpt>
  <trkpt lat="30.27036103" lon="120.12049053"><ele>22.906</ele><time>2026-05-02T11:13:17Z</time><sat>24</sat></trkpt>
  <trkpt lat="30.27036219" lon="120.12049219"><ele>22.218</ele><time>2026-05-02T11:13:20Z</time><sat>21</sat></trkpt>
  <trkpt lat="30.27035900" lon="120.12048548"><ele>21.391</ele><time>2026-05-02T11:13:23Z</time><sat>25</sat></trkpt>
  <trkpt lat="30.27035713" lon="120.12048066"><ele>21.224</ele><time>2026-05-02T11:13:26Z</time><sat>22</sat></trkpt>
  <trkpt lat="30.27035564" lon="120.12047832"><ele>21.399</ele><time>2026-05-02T11:13:30Z</time><sat>21</sat></trkpt>
  <trkpt lat="30.27035377" lon="120.12048087"><ele>21.303</ele><time>2026-05-02T11:13:33Z</time><sat>16</sat></trkpt>
  <trkpt lat="30.27034539" lon="120.12046420"><ele>11.746</ele><time>2026-05-02T11:13:36Z</time><sat>17</sat></trkpt>
  <trkpt lat="30.27035812" lon="120.12042030"><ele>10.370</ele><time>2026-05-02T11:13:39Z</time><sat>24</sat></trkpt>
  <trkpt lat="30.27038431" lon="120.12039177"><ele>10.307</ele><time>2026-05-02T11:13:42Z</time><sat>31</sat></trkpt>
  <trkpt lat="30.27039717" lon="120.12039146"><ele>10.338</ele><time>2026-05-02T11:13:45Z</time><sat>32</sat></trkpt>
  <trkpt lat="30.27039822" lon="120.12040103"><ele>11.679</ele><time>2026-05-02T11:13:48Z</time><sat>32</sat></trkpt>
  <trkpt lat="30.27040445" lon="120.12042010"><ele>11.868</ele><time>2026-05-02T11:13:51Z</time><sat>30</sat></trkpt>
  <trkpt lat="30.27048651" lon="120.12045363"><ele>11.762</ele><time>2026-05-02T11:13:54Z</time><sat>29</sat></trkpt>
  <trkpt lat="30.27061192" lon="120.12050259"><ele>11.189</ele><time>2026-05-02T11:13:57Z</time><sat>30</sat></trkpt>
  <trkpt lat="30.27075003" lon="120.12056487"><ele>11.400</ele><time>2026-05-02T11:14:00Z</time><sat>30</sat></trkpt>
  <trkpt lat="30.27091425" lon="120.12064094"><ele>12.014</ele><time>2026-05-02T11:14:03Z</time><sat>28</sat></trkpt>
  <trkpt lat="30.27101355" lon="120.12053359"><ele>8.847</ele><time>2026-05-02T11:14:06Z</time><sat>27</sat></trkpt>
  <trkpt lat="30.27106530" lon="120.12035598"><ele>6.399</ele><time>2026-05-02T11:14:09Z</time><sat>27</sat></trkpt>
  <trkpt lat="30.27111721" lon="120.12017186"><ele>5.489</ele><time>2026-05-02T11:14:12Z</time><sat>28</sat></trkpt>
  <trkpt lat="30.27116354" lon="120.11998634"><ele>3.970</ele><time>2026-05-02T11:14:15Z</time><sat>26</sat></trkpt>
  <trkpt lat="30.27121830" lon="120.11981118"><ele>3.258</ele><time>2026-05-02T11:14:18Z</time><sat>24</sat></trkpt>
  <trkpt lat="30.27128969" lon="120.11968452"><ele>3.105</ele><time>2026-05-02T11:14:21Z</time><sat>26</sat></trkpt>
  <trkpt lat="30.27137982" lon="120.11960508"><ele>3.640</ele><time>2026-05-02T11:14:24Z</time><sat>28</sat></trkpt>
  <trkpt lat="30.27145187" lon="120.11955733"><ele>5.788</ele><time>2026-05-02T11:14:27Z</time><sat>33</sat></trkpt>
  <trkpt lat="30.27149529" lon="120.11944911"><ele>6.274</ele><time>2026-05-02T11:14:30Z</time><sat>32</sat></trkpt>
  <trkpt lat="30.27153533" lon="120.11930683"><ele>6.132</ele><time>2026-05-02T11:14:33Z</time><sat>33</sat></trkpt>
  <trkpt lat="30.27166932" lon="120.11926916"><ele>5.406</ele><time>2026-05-02T11:14:36Z</time><sat>33</sat></trkpt>
  <trkpt lat="30.27175962" lon="120.11914856"><ele>5.348</ele><time>2026-05-02T11:14:39Z</time><sat>35</sat></trkpt>
  <trkpt lat="30.27181011" lon="120.11898370"><ele>5.119</ele><time>2026-05-02T11:14:42Z</time><sat>32</sat></trkpt>
  <trkpt lat="30.27185928" lon="120.11883580"><ele>5.010</ele><time>2026-05-02T11:14:45Z</time><sat>31</sat></trkpt>
  <trkpt lat="30.27191925" lon="120.11879643"><ele>6.203</ele><time>2026-05-02T11:14:48Z</time><sat>26</sat></trkpt>
  <trkpt lat="30.27197018" lon="120.11878753"><ele>7.230</ele><time>2026-05-02T11:14:51Z</time><sat>33</sat></trkpt>
  <trkpt lat="30.27198355" lon="120.11878911"><ele>8.198</ele><time>2026-05-02T11:14:54Z</time><sat>33</sat></trkpt>
  <trkpt lat="30.27198344" lon="120.11878293"><ele>8.364</ele><time>2026-05-02T11:14:57Z</time><sat>35</sat></trkpt>
  <trkpt lat="30.27198288" lon="120.11878117"><ele>7.980</ele><time>2026-05-02T11:15:00Z</time><sat>35</sat></trkpt>
  <trkpt lat="30.27198199" lon="120.11877926"><ele>8.035</ele><time>2026-05-02T11:15:03Z</time><sat>35</sat></trkpt>
  <trkpt lat="30.27198124" lon="120.11877932"><ele>8.130</ele><time>2026-05-02T11:15:06Z</time><sat>35</sat></trkpt>
  <trkpt lat="30.27198352" lon="120.11877756"><ele>7.899</ele><time>2026-05-02T11:15:09Z</time><sat>34</sat></trkpt>
  <trkpt lat="30.27198486" lon="120.11877749"><ele>7.677</ele><time>2026-05-02T11:15:12Z</time><sat>36</sat></trkpt>
  <trkpt lat="30.27198576" lon="120.11877823"><ele>7.962</ele><time>2026-05-02T11:15:15Z</time><sat>36</sat></trkpt>
  <trkpt lat="30.27198783" lon="120.11877491"><ele>8.563</ele><time>2026-05-02T11:15:18Z</time><sat>34</sat></trkpt>
  <trkpt lat="30.27198762" lon="120.11877258"><ele>8.403</ele><time>2026-05-02T11:15:21Z</time><sat>34</sat></trkpt>
  <trkpt lat="30.27198830" lon="120.11877089"><ele>8.809</ele><time>2026-05-02T11:15:24Z</time><sat>36</sat></trkpt>
  <trkpt lat="30.27199217" lon="120.11876760"><ele>9.187</ele><time>2026-05-02T11:15:27Z</time><sat>36</sat></trkpt>
  <trkpt lat="30.27199334" lon="120.11876641"><ele>8.973</ele><time>2026-05-02T11:15:30Z</time><sat>35</sat></trkpt>
  <trkpt lat="30.27199465" lon="120.11876558"><ele>9.497</ele><time>2026-05-02T11:15:33Z</time><sat>34</sat></trkpt>
  <trkpt lat="30.27199250" lon="120.11875791"><ele>10.862</ele><time>2026-05-02T11:15:36Z</time><sat>33</sat></trkpt>
  <trkpt lat="30.27199257" lon="120.11875492"><ele>12.642</ele><time>2026-05-02T11:15:39Z</time><sat>36</sat></trkpt>
  <trkpt lat="30.27199232" lon="120.11876004"><ele>12.785</ele><time>2026-05-02T11:15:42Z</time><sat>37</sat></trkpt>
  <trkpt lat="30.27199055" lon="120.11876888"><ele>12.464</ele><time>2026-05-02T11:15:45Z</time><sat>36</sat></trkpt>
  <trkpt lat="30.27198375" lon="120.11877310"><ele>12.842</ele><time>2026-05-02T11:15:48Z</time><sat>35</sat></trkpt>
  <trkpt lat="30.27197056" lon="120.11877472"><ele>12.862</ele><time>2026-05-02T11:15:51Z</time><sat>34</sat></trkpt>
  <trkpt lat="30.27196556" lon="120.11877862"><ele>13.216</ele><time>2026-05-02T11:15:54Z</time><sat>36</sat></trkpt>
  <trkpt lat="30.27196058" lon="120.11878486"><ele>13.302</ele><time>2026-05-02T11:15:57Z</time><sat>36</sat></trkpt>
  <trkpt lat="30.27195910" lon="120.11878556"><ele>13.819</ele><time>2026-05-02T11:16:00Z</time><sat>36</sat></trkpt>
  <trkpt lat="30.27196122" lon="120.11878541"><ele>14.038</ele><time>2026-05-02T11:16:03Z</time><sat>36</sat></trkpt>
  <trkpt lat="30.27196098" lon="120.11878766"><ele>13.768</ele><time>2026-05-02T11:16:06Z</time><sat>36</sat></trkpt>
  <trkpt lat="30.27196226" lon="120.11878601"><ele>13.402</ele><time>2026-05-02T11:16:09Z</time><sat>36</sat></trkpt>
  <trkpt lat="30.27196250" lon="120.11878372"><ele>13.353</ele><time>2026-05-02T11:16:12Z</time><sat>37</sat></trkpt>
  <trkpt lat="30.27196250" lon="120.11878323"><ele>13.363</ele><time>2026-05-02T11:16:15Z</time><sat>37</sat></trkpt>
  <trkpt lat="30.27194327" lon="120.11878968"><ele>13.854</ele><time>2026-05-02T11:16:18Z</time><sat>36</sat></trkpt>
  <trkpt lat="30.27191216" lon="120.11880307"><ele>13.524</ele><time>2026-05-02T11:16:21Z</time><sat>36</sat></trkpt>
  <trkpt lat="30.27188705" lon="120.11882820"><ele>13.203</ele><time>2026-05-02T11:16:24Z</time><sat>37</sat></trkpt>
  <trkpt lat="30.27187555" lon="120.11885827"><ele>13.035</ele><time>2026-05-02T11:16:27Z</time><sat>37</sat></trkpt>
  <trkpt lat="30.27186044" lon="120.11887662"><ele>13.096</ele><time>2026-05-02T11:16:30Z</time><sat>35</sat></trkpt>
  <trkpt lat="30.27184747" lon="120.11889315"><ele>13.060</ele><time>2026-05-02T11:16:33Z</time><sat>36</sat></trkpt>
  <trkpt lat="30.27183852" lon="120.11891154"><ele>13.224</ele><time>2026-05-02T11:16:36Z</time><sat>37</sat></trkpt>
  <trkpt lat="30.27182169" lon="120.11897195"><ele>11.190</ele><time>2026-05-02T11:16:45Z</time><sat>32</sat></trkpt>
  <trkpt lat="30.27181685" lon="120.11899793"><ele>10.596</ele><time>2026-05-02T11:16:48Z</time><sat>36</sat></trkpt>
  <trkpt lat="30.27181250" lon="120.11902557"><ele>10.794</ele><time>2026-05-02T11:16:51Z</time><sat>36</sat></trkpt>
  <trkpt lat="30.27180944" lon="120.11905080"><ele>10.192</ele><time>2026-05-02T11:16:54Z</time><sat>36</sat></trkpt>
  <trkpt lat="30.27180350" lon="120.11907733"><ele>8.666</ele><time>2026-05-02T11:16:57Z</time><sat>36</sat></trkpt>
  <trkpt lat="30.27180030" lon="120.11910386"><ele>8.273</ele><time>2026-05-02T11:17:00Z</time><sat>36</sat></trkpt>
  <trkpt lat="30.27179219" lon="120.11913037"><ele>7.065</ele><time>2026-05-02T11:17:03Z</time><sat>36</sat></trkpt>
  <trkpt lat="30.27176185" lon="120.11919209"><ele>3.557</ele><time>2026-05-02T11:17:06Z</time><sat>36</sat></trkpt>
  <trkpt lat="30.27175093" lon="120.11919845"><ele>2.171</ele><time>2026-05-02T11:17:09Z</time><sat>36</sat></trkpt>
  <trkpt lat="30.27173176" lon="120.11921281"><ele>3.679</ele><time>2026-05-02T11:17:12Z</time><sat>36</sat></trkpt>
  <trkpt lat="30.27170731" lon="120.11922787"><ele>6.898</ele><time>2026-05-02T11:17:15Z</time><sat>36</sat></trkpt>
  <trkpt lat="30.27168105" lon="120.11923511"><ele>9.974</ele><time>2026-05-02T11:17:18Z</time><sat>36</sat></trkpt>
  <trkpt lat="30.27166042" lon="120.11924605"><ele>12.823</ele><time>2026-05-02T11:17:21Z</time><sat>36</sat></trkpt>
  <trkpt lat="30.27164259" lon="120.11925774"><ele>14.045</ele><time>2026-05-02T11:17:24Z</time><sat>36</sat></trkpt>
  <trkpt lat="30.27162462" lon="120.11927138"><ele>13.325</ele><time>2026-05-02T11:17:27Z</time><sat>36</sat></trkpt>
  <trkpt lat="30.27160577" lon="120.11928548"><ele>14.069</ele><time>2026-05-02T11:17:30Z</time><sat>36</sat></trkpt>
  <trkpt lat="30.27158499" lon="120.11929636"><ele>13.912</ele><time>2026-05-02T11:17:33Z</time><sat>36</sat></trkpt>
  <trkpt lat="30.27156430" lon="120.11931161"><ele>13.343</ele><time>2026-05-02T11:17:36Z</time><sat>36</sat></trkpt>
  <trkpt lat="30.27154487" lon="120.11933084"><ele>12.733</ele><time>2026-05-02T11:17:39Z</time><sat>36</sat></trkpt>
  <trkpt lat="30.27152267" lon="120.11936430"><ele>12.266</ele><time>2026-05-02T11:17:42Z</time><sat>36</sat></trkpt>
  <trkpt lat="30.27150722" lon="120.11939356"><ele>12.653</ele><time>2026-05-02T11:17:45Z</time><sat>36</sat></trkpt>
  <trkpt lat="30.27147881" lon="120.11941491"><ele>11.653</ele><time>2026-05-02T11:17:48Z</time><sat>36</sat></trkpt>
  <trkpt lat="30.27145874" lon="120.11940157"><ele>11.688</ele><time>2026-05-02T11:17:51Z</time><sat>36</sat></trkpt>
  <trkpt lat="30.27143392" lon="120.11938943"><ele>11.914</ele><time>2026-05-02T11:17:54Z</time><sat>36</sat></trkpt>
  <trkpt lat="30.27140618" lon="120.11937756"><ele>12.466</ele><time>2026-05-02T11:17:57Z</time><sat>36</sat></trkpt>
  <trkpt lat="30.27138092" lon="120.11937104"><ele>14.128</ele><time>2026-05-02T11:18:00Z</time><sat>36</sat></trkpt>
  <trkpt lat="30.27135715" lon="120.11936398"><ele>15.485</ele><time>2026-05-02T11:18:03Z</time><sat>36</sat></trkpt>
  <trkpt lat="30.27133600" lon="120.11937100"><ele>18.515</ele><time>2026-05-02T11:18:06Z</time><sat>36</sat></trkpt>
  <trkpt lat="30.27130409" lon="120.11937707"><ele>20.319</ele><time>2026-05-02T11:18:09Z</time><sat>36</sat></trkpt>
  <trkpt lat="30.27127532" lon="120.11938062"><ele>20.893</ele><time>2026-05-02T11:18:12Z</time><sat>36</sat></trkpt>
  <trkpt lat="30.27123861" lon="120.11938621"><ele>22.289</ele><time>2026-05-02T11:18:15Z</time><sat>36</sat></trkpt>
  <trkpt lat="30.27121328" lon="120.11938499"><ele>23.562</ele><time>2026-05-02T11:18:18Z</time><sat>36</sat></trkpt>
  <trkpt lat="30.27118597" lon="120.11938233"><ele>23.555</ele><time>2026-05-02T11:18:21Z</time><sat>36</sat></trkpt>
  <trkpt lat="30.27116082" lon="120.11937063"><ele>22.426</ele><time>2026-05-02T11:18:24Z</time><sat>36</sat></trkpt>
  <trkpt lat="30.27113131" lon="120.11935407"><ele>20.502</ele><time>2026-05-02T11:18:27Z</time><sat>36</sat></trkpt>
  <trkpt lat="30.27109463" lon="120.11933164"><ele>18.547</ele><time>2026-05-02T11:18:30Z</time><sat>36</sat></trkpt>
  <trkpt lat="30.27105756" lon="120.11931515"><ele>19.072</ele><time>2026-05-02T11:18:33Z</time><sat>36</sat></trkpt>
  <trkpt lat="30.27102576" lon="120.11930227"><ele>20.375</ele><time>2026-05-02T11:18:36Z</time><sat>36</sat></trkpt>
  <trkpt lat="30.27099694" lon="120.11928908"><ele>21.851</ele><time>2026-05-02T11:18:39Z</time><sat>36</sat></trkpt>
  <trkpt lat="30.27096828" lon="120.11927892"><ele>22.165</ele><time>2026-05-02T11:18:42Z</time><sat>36</sat></trkpt>
  <trkpt lat="30.27093998" lon="120.11927156"><ele>23.693</ele><time>2026-05-02T11:18:45Z</time><sat>36</sat></trkpt>
 </trkseg>
</trk>

</gpx>
 